HIERARCHY
ROOT Hips
{
    OFFSET 0.000000 96.739998 0.000000
    CHANNELS 6 Xposition Yposition Zposition Xrotation Yrotation Zrotation
    JOINT RightUpLeg
    {
        OFFSET -10.000000 0.000000 0.000000
        CHANNELS 3 Xrotation Yrotation Zrotation
        JOINT RightLeg
        {
            OFFSET 0.000000 -44.369999 0.000000
            CHANNELS 3 Xrotation Yrotation Zrotation
            JOINT RightFoot
            {
                OFFSET 0.000000 -44.369999 0.000000
                CHANNELS 3 Xrotation Yrotation Zrotation
                JOINT RightToeBase
                {
                    OFFSET 0.000000 -8.000000 14.560000
                    CHANNELS 3 Xrotation Yrotation Zrotation
                    End Site
                    {
                        OFFSET 0.000000 0.000000 6.240001
                    }
                }
            }
        }
    }
    JOINT LeftUpLeg
    {
        OFFSET 10.000000 0.000000 0.000000
        CHANNELS 3 Xrotation Yrotation Zrotation
        JOINT LeftLeg
        {
            OFFSET 0.000000 -44.369999 0.000000
            CHANNELS 3 Xrotation Yrotation Zrotation
            JOINT LeftFoot
            {
                OFFSET 0.000000 -44.369999 0.000000
                CHANNELS 3 Xrotation Yrotation Zrotation
                JOINT LeftToeBase
                {
                    OFFSET 0.000000 -8.000000 14.560000
                    CHANNELS 3 Xrotation Yrotation Zrotation
                    End Site
                    {
                        OFFSET 0.000000 0.000000 6.240001
                    }
                }
            }
        }
    }
    JOINT Spine
    {
        OFFSET 0.000000 8.307999 0.000000
        CHANNELS 3 Xrotation Yrotation Zrotation
        JOINT Spine1
        {
            OFFSET 0.000000 18.394997 0.000000
            CHANNELS 3 Xrotation Yrotation Zrotation
            JOINT Spine2
            {
                OFFSET 0.000000 13.054993 0.000000
                CHANNELS 3 Xrotation Yrotation Zrotation
                JOINT Neck
                {
                    OFFSET 0.000000 19.582001 0.000000
                    CHANNELS 3 Xrotation Yrotation Zrotation
                    JOINT Head
                    {
                        OFFSET 0.000000 9.970001 0.000000
                        CHANNELS 3 Xrotation Yrotation Zrotation
                        End Site
                        {
                            OFFSET 0.000000 16.949997 0.000000
                        }
                    }
                }
                JOINT RightShoulder
                {
                    OFFSET -6.716181 13.647995 0.000000
                    CHANNELS 3 Xrotation Yrotation Zrotation
                    JOINT RightArm
                    {
                        OFFSET -10.033819 0.000000 0.000000
                        CHANNELS 3 Xrotation Yrotation Zrotation
                        JOINT RightForeArm
                        {
                            OFFSET -28.000000 0.000000 0.000000
                            CHANNELS 3 Xrotation Yrotation Zrotation
                            JOINT RightHand
                            {
                                OFFSET -27.500000 0.000000 0.000000
                                CHANNELS 3 Xrotation Yrotation Zrotation
                                JOINT RightHandThumb1
                                {
                                    OFFSET -1.946999 -0.487000 2.532000
                                    CHANNELS 3 Xrotation Yrotation Zrotation
                                    JOINT RightHandThumb2
                                    {
                                        OFFSET -3.408035 -1.007584 1.589193
                                        CHANNELS 3 Xrotation Yrotation Zrotation
                                        JOINT RightHandThumb3
                                        {
                                            OFFSET -2.702942 0.058472 0.087804
                                            CHANNELS 3 Xrotation Yrotation Zrotation
                                            End Site
                                            {
                                                OFFSET -2.549057 0.055145 0.082806
                                            }
                                        }
                                    }
                                }
                                JOINT RightHandIndex1
                                {
                                    OFFSET -8.922997 0.441010 3.147000
                                    CHANNELS 3 Xrotation Yrotation Zrotation
                                    JOINT RightHandIndex2
                                    {
                                        OFFSET -3.827003 0.000000 0.000000
                                        CHANNELS 3 Xrotation Yrotation Zrotation
                                        JOINT RightHandIndex3
                                        {
                                            OFFSET -2.168999 0.000000 0.000000
                                            CHANNELS 3 Xrotation Yrotation Zrotation
                                            End Site
                                            {
                                                OFFSET -1.907997 0.000000 0.000000
                                            }
                                        }
                                    }
                                }
                                JOINT RightHandMiddle1
                                {
                                    OFFSET -9.044998 0.457993 1.132000
                                    CHANNELS 3 Xrotation Yrotation Zrotation
                                    JOINT RightHandMiddle2
                                    {
                                        OFFSET -4.175003 0.000000 0.000000
                                        CHANNELS 3 Xrotation Yrotation Zrotation
                                        JOINT RightHandMiddle3
                                        {
                                            OFFSET -2.616997 0.000000 0.000000
                                            CHANNELS 3 Xrotation Yrotation Zrotation
                                            End Site
                                            {
                                                OFFSET -2.087997 0.000000 0.000000
                                            }
                                        }
                                    }
                                }
                                JOINT RightHandRing1
                                {
                                    OFFSET -8.458000 0.546005 -0.642000
                                    CHANNELS 3 Xrotation Yrotation Zrotation
                                    JOINT RightHandRing2
                                    {
                                        OFFSET -3.639000 0.000000 0.000000
                                        CHANNELS 3 Xrotation Yrotation Zrotation
                                        JOINT RightHandRing3
                                        {
                                            OFFSET -2.525002 0.000000 0.000000
                                            CHANNELS 3 Xrotation Yrotation Zrotation
                                            End Site
                                            {
                                                OFFSET -1.962997 0.000000 0.000000
                                            }
                                        }
                                    }
                                }
                                JOINT RightHandPinky1
                                {
                                    OFFSET -7.720001 0.473999 -2.424000
                                    CHANNELS 3 Xrotation Yrotation Zrotation
                                    JOINT RightHandPinky2
                                    {
                                        OFFSET -2.914001 0.000000 0.000000
                                        CHANNELS 3 Xrotation Yrotation Zrotation
                                        JOINT RightHandPinky3
                                        {
                                            OFFSET -1.841003 0.000000 0.000000
                                            CHANNELS 3 Xrotation Yrotation Zrotation
                                            End Site
                                            {
                                                OFFSET -1.738998 0.000000 0.000000
                                            }
                                        }
                                    }
                                }
                            }
                        }
                    }
                }
                JOINT LeftShoulder
                {
                    OFFSET 6.716181 13.647995 0.000000
                    CHANNELS 3 Xrotation Yrotation Zrotation
                    JOINT LeftArm
                    {
                        OFFSET 10.033819 0.000000 0.000000
                        CHANNELS 3 Xrotation Yrotation Zrotation
                        JOINT LeftForeArm
                        {
                            OFFSET 28.000000 0.000000 0.000000
                            CHANNELS 3 Xrotation Yrotation Zrotation
                            JOINT LeftHand
                            {
                                OFFSET 27.500000 0.000000 0.000000
                                CHANNELS 3 Xrotation Yrotation Zrotation
                                JOINT LeftHandThumb1
                                {
                                    OFFSET 1.946999 -0.487000 2.532000
                                    CHANNELS 3 Xrotation Yrotation Zrotation
                                    JOINT LeftHandThumb2
                                    {
                                        OFFSET 3.435249 -1.007584 1.529471
                                        CHANNELS 3 Xrotation Yrotation Zrotation
                                        JOINT LeftHandThumb3
                                        {
                                            OFFSET 2.704063 0.058472 0.040617
                                            CHANNELS 3 Xrotation Yrotation Zrotation
                                            End Site
                                            {
                                                OFFSET 2.550117 0.055145 0.038305
                                            }
                                        }
                                    }
                                }
                                JOINT LeftHandIndex1
                                {
                                    OFFSET 8.922997 0.441010 3.147000
                                    CHANNELS 3 Xrotation Yrotation Zrotation
                                    JOINT LeftHandIndex2
                                    {
                                        OFFSET 3.827003 0.000000 0.000000
                                        CHANNELS 3 Xrotation Yrotation Zrotation
                                        JOINT LeftHandIndex3
                                        {
                                            OFFSET 2.168999 0.000000 0.000000
                                            CHANNELS 3 Xrotation Yrotation Zrotation
                                            End Site
                                            {
                                                OFFSET 1.907997 0.000000 0.000000
                                            }
                                        }
                                    }
                                }
                                JOINT LeftHandMiddle1
                                {
                                    OFFSET 9.044998 0.457993 1.132000
                                    CHANNELS 3 Xrotation Yrotation Zrotation
                                    JOINT LeftHandMiddle2
                                    {
                                        OFFSET 4.175003 0.000000 0.000000
                                        CHANNELS 3 Xrotation Yrotation Zrotation
                                        JOINT LeftHandMiddle3
                                        {
                                            OFFSET 2.616997 0.000000 0.000000
                                            CHANNELS 3 Xrotation Yrotation Zrotation
                                            End Site
                                            {
                                                OFFSET 2.087997 0.000000 0.000000
                                            }
                                        }
                                    }
                                }
                                JOINT LeftHandRing1
                                {
                                    OFFSET 8.458000 0.546005 -0.642000
                                    CHANNELS 3 Xrotation Yrotation Zrotation
                                    JOINT LeftHandRing2
                                    {
                                        OFFSET 3.639000 0.000000 0.000000
                                        CHANNELS 3 Xrotation Yrotation Zrotation
                                        JOINT LeftHandRing3
                                        {
                                            OFFSET 2.525002 0.000000 0.000000
                                            CHANNELS 3 Xrotation Yrotation Zrotation
                                            End Site
                                            {
                                                OFFSET 1.962997 0.000000 0.000000
                                            }
                                        }
                                    }
                                }
                                JOINT LeftHandPinky1
                                {
                                    OFFSET 7.720001 0.473999 -2.424000
                                    CHANNELS 3 Xrotation Yrotation Zrotation
                                    JOINT LeftHandPinky2
                                    {
                                        OFFSET 2.914001 0.000000 0.000000
                                        CHANNELS 3 Xrotation Yrotation Zrotation
                                        JOINT LeftHandPinky3
                                        {
                                            OFFSET 1.841003 0.000000 0.000000
                                            CHANNELS 3 Xrotation Yrotation Zrotation
                                            End Site
                                            {
                                                OFFSET 1.738998 0.000000 0.000000
                                            }
                                        }
                                    }
                                }
                            }
                        }
                    }
                }
            }
        }
    }
}
MOTION
Frames: 1
Frame Time: 0.011111
0.000000 96.500000 0.000000 -0.000000 0.000000 -0.000000 -0.000000 0.000000 -0.000000 -0.000000 0.000000 -0.000000 -0.000000 0.000000 -0.000000 0.000000 0.000000 0.000000 -0.000000 0.000000 -0.000000 -0.000000 0.000000 -0.000000 -0.000000 0.000000 -0.000000 0.000000 0.000000 0.000000 -0.000000 0.000000 -0.000000 -0.000000 0.000000 -0.000000 -0.000000 0.000000 -0.000000 -0.000000 0.000000 -0.000000 -0.000000 0.000000 -0.000000 -0.000000 0.000000 -0.000000 -0.000000 0.000000 -0.000000 -0.000000 0.000000 -0.000000 -0.000000 0.000000 -0.000000 -0.000000 0.000000 -0.000000 0.000000 0.000000 -0.000000 0.000000 0.000000 -0.000000 -0.000000 0.000000 -0.000000 -0.000000 0.000000 -0.000000 -0.000000 0.000000 -0.000000 -0.000000 0.000000 -0.000000 -0.000000 0.000000 -0.000000 -0.000000 0.000000 -0.000000 -0.000000 0.000000 -0.000000 -0.000000 0.000000 -0.000000 -0.000000 0.000000 -0.000000 -0.000000 0.000000 -0.000000 -0.000000 0.000000 -0.000000 -0.000000 0.000000 -0.000000 -0.000000 0.000000 -0.000000 -0.000000 0.000000 -0.000000 -0.000000 0.000000 -0.000000 -0.000000 0.000000 -0.000000 -0.000000 0.000000 -0.000000 -0.000000 0.000000 -0.000000 0.000000 -0.000000 0.000000 -0.000000 0.000000 -0.000000 -0.000000 0.000000 -0.000000 -0.000000 0.000000 -0.000000 -0.000000 0.000000 -0.000000 -0.000000 0.000000 -0.000000 -0.000000 0.000000 -0.000000 -0.000000 0.000000 -0.000000 -0.000000 0.000000 -0.000000 -0.000000 0.000000 -0.000000 -0.000000 0.000000 -0.000000 -0.000000 0.000000 -0.000000 -0.000000 0.000000 -0.000000
