HIERARCHY
ROOT Hips
{
    OFFSET 0.00 0.00 0.00
    CHANNELS 6 Xposition Yposition Zposition Xrotation Yrotation Zrotation
    JOINT LeftHip
    {
        OFFSET 2.00 0.00 0.00
        CHANNELS 3 Xrotation Yrotation Zrotation
        End Site
        {
            OFFSET 0.00 -5.00 0.00
        }
    }
    JOINT RightHip
    {
        OFFSET -2.00 0.00 0.00
        CHANNELS 3 Xrotation Yrotation Zrotation
        End Site
        {
            OFFSET 0.00 -5.00 0.00
        }
    }
}
MOTION
Frames: 2
Frame Time: 0.033333
0.00 0.00 0.00 0.00 10.00 0.00 0.00 15.00 0.00 0.00 -15.00 0.00
0.00 1.00 0.00 0.00 20.00 0.00 0.00 30.00 0.00 0.00 -30.00 0.00
